TIANHE                  
1 48274U 21035A   21323.35050274  .00004681  00000-0  57042-4 0  9994
2 48274  41.4705  57.1394 0004093 355.5380  53.1830 15.61478555 31968
